OBJECT_NAME,OBJECT_ID,EPOCH,MEAN_MOTION,ECCENTRICITY,INCLINATION,RA_OF_ASC_NODE,ARG_OF_PERICENTER,MEAN_ANOMALY,EPHEMERIS_TYPE,CLASSIFICATION_TYPE,NORAD_CAT_ID,ELEMENT_SET_NO,REV_AT_EPOCH,BSTAR,MEAN_MOTION_DOT,MEAN_MOTION_DDOT
ONEWEB-0054,2020-008AD,2026-06-07T09:14:49.850016,13.10371755,.0001854,87.8853,38.2173,82.7872,277.3466,0,U,45158,999,30674,-.22713E-2,-.78E-5,0
ONEWEB-0056,2020-008AE,2026-06-07T08:34:04.240128,13.10371977,.0001935,87.8844,38.2180,90.8472,269.2877,0,U,45159,999,30689,.10009E-2,.362E-5,0
ONEWEB-0057,2020-008AF,2026-06-07T08:58:18.302880,13.10370047,.0002255,87.8839,38.2267,74.4729,285.6647,0,U,45160,999,30706,-.10524E-2,-.355E-5,0
ONEWEB-0058,2020-008AG,2026-06-07T08:39:12.246624,13.10370193,.0001548,87.8841,38.2365,78.8723,281.2578,0,U,45161,999,30713,.61933E-3,.229E-5,0
ONEWEB-0059,2020-008AH,2026-06-07T10:24:23.241312,13.10370002,.0001763,87.8837,38.2208,76.4570,283.6753,0,U,45162,999,30704,.13064E-2,.469E-5,0
ONEWEB-0062,2020-008AJ,2026-06-07T09:07:27.992640,13.10370841,.0001378,87.8844,38.2177,85.4231,274.7054,0,U,45163,999,30690,-.16854E-2,-.576E-5,0
ONEWEB-0065,2020-008AK,2026-06-07T09:55:18.001920,13.10375206,.0002222,87.8850,38.2195,83.5025,276.6355,0,U,45164,999,30660,.69325E-3,.255E-5,0
ONEWEB-0066,2020-020A,2026-06-07T09:08:13.267104,13.11418217,.0001718,87.8899,23.0232,78.9844,281.1477,0,U,45424,999,30139,.15239E-2,.553E-5,0
ONEWEB-0067,2020-020B,2026-06-07T08:12:58.011840,13.11423243,.0001996,87.8918,22.9513,83.6082,276.5273,0,U,45425,999,30144,-.15289E-2,-.529E-5,0
ONEWEB-0080,2020-020C,2026-06-07T04:32:31.147296,13.11417049,.0001447,87.8910,23.0568,88.7614,271.3679,0,U,45426,999,30139,-.14337E-2,-.495E-5,0
ONEWEB-0090,2020-020D,2026-06-07T08:53:46.044384,13.11419120,.0001766,87.8906,23.0254,85.2065,274.9265,0,U,45427,999,30138,.80791E-3,.299E-5,0
ONEWEB-0061,2020-020E,2026-06-07T07:49:53.259168,13.11415317,.0001769,87.8903,23.0186,83.0290,277.1039,0,U,45428,999,30133,-.40913E-3,-.132E-5,0
ONEWEB-0081,2020-020F,2026-06-07T00:03:46.387872,13.11416463,.0001871,87.8900,23.0939,79.0989,281.0349,0,U,45429,999,30140,.11849E-2,.433E-5,0
ONEWEB-0069,2020-020G,2026-06-07T09:15:44.491968,13.11418346,.0001809,87.8903,23.0203,81.8309,278.3024,0,U,45430,999,30138,.14394E-2,.523E-5,0
ONEWEB-0031,2020-020H,2026-06-06T15:48:08.155008,13.11417432,.0001579,87.8895,23.1707,87.8366,272.2943,0,U,45431,999,30127,-.17128E-2,-.594E-5,0
ONEWEB-0027,2020-020J,2026-06-07T01:52:58.050624,13.16053388,.0001806,87.9149,7.8723,97.5803,262.5533,0,U,45432,999,30502,-.28372E-3,-.95E-6,0
ONEWEB-0064,2020-020K,2026-06-07T08:14:29.378112,13.11418434,.0001672,87.8901,23.0265,90.1549,269.9770,0,U,45433,999,30139,-.15908E-2,-.551E-5,0
ONEWEB-0018,2020-020L,2026-06-07T09:00:53.860896,13.11418648,.0001578,87.8899,23.0192,73.7726,286.3575,0,U,45434,999,30134,.12522E-2,.457E-5,0
ONEWEB-0083,2020-020M,2026-06-07T08:46:27.280128,13.11418509,.0001722,87.8906,23.0145,83.7388,276.3937,0,U,45435,999,30138,.32341E-3,.127E-5,0
ONEWEB-0095,2020-020N,2026-06-07T08:34:15.438432,13.11404732,.0002113,87.8916,23.0228,105.3178,254.8183,0,U,45436,999,30138,-.45382E-2,-.1595E-4,0
ONEWEB-0092,2020-020P,2026-06-07T09:20:41.902368,13.11954604,.0002116,87.8905,23.0105,86.7127,273.4244,0,U,45437,999,30150,.11312E-2,.417E-5,0
ONEWEB-0085,2020-020Q,2026-06-07T08:46:03.197856,13.11420196,.0001785,87.8899,23.0219,84.3748,275.7584,0,U,45438,999,30138,.42988E-3,.165E-5,0
ONEWEB-0096,2020-020R,2026-06-07T08:48:44.674272,13.11424113,.0001802,87.8907,23.0167,87.2528,272.8806,0,U,45439,999,30137,.64836E-3,.243E-5,0
ONEWEB-0037,2020-020S,2026-06-07T07:52:07.732992,13.11911075,.0001858,87.8914,22.9983,85.7375,274.3966,0,U,45440,999,30140,-.20164E-3,-.59E-6,0
ONEWEB-0042,2020-020T,2026-06-07T08:33:49.771584,13.11420143,.0001793,87.8908,23.0152,81.3589,278.7742,0,U,45441,999,30137,-.38849E-3,-.125E-5,0
ONEWEB-0098,2020-020U,2026-06-07T08:27:55.776960,13.11418464,.0001685,87.8900,23.0252,86.1315,274.0005,0,U,45442,999,30135,-.98764E-3,-.337E-5,0
ONEWEB-0055,2020-020V,2026-06-07T07:57:13.651200,13.11413380,.0001733,87.8903,23.0286,86.9431,273.1895,0,U,45443,999,30132,-.79356E-3,-.269E-5,0
ONEWEB-0093,2020-020W,2026-06-07T09:18:11.315808,13.11417508,.0002037,87.8907,23.0098,74.7451,285.3902,0,U,45444,999,30139,.15131E-2,.549E-5,0
ONEWEB-0029,2020-020X,2026-06-07T08:07:22.931040,13.11418613,.0001816,87.8894,23.0302,76.7557,283.3774,0,U,45445,999,30136,-.13957E-2,-.482E-5,0
ONEWEB-0068,2020-020Y,2026-06-07T09:17:48.111360,13.11416409,.0001813,87.8907,23.0135,77.7166,282.4165,0,U,45446,999,30131,.13886E-2,.505E-5,0
ONEWEB-0046,2020-020Z,2026-06-07T09:05:46.749984,13.11418592,.0002017,87.8900,23.0219,81.1490,278.9866,0,U,45447,999,30132,.138E-2,.502E-5,0
