ONEWEB-0054             
1 45158U 20008AD  26158.38529919 -.00000780  00000+0 -22713-2 0  9994
2 45158  87.8853  38.2173 0001854  82.7872 277.3466 13.10371755306748
ONEWEB-0056             
1 45159U 20008AE  26158.35699352  .00000362  00000+0  10009-2 0  9990
2 45159  87.8844  38.2180 0001935  90.8472 269.2877 13.10371977306891
ONEWEB-0057             
1 45160U 20008AF  26158.37382295 -.00000355  00000+0 -10524-2 0  9995
2 45160  87.8839  38.2267 0002255  74.4729 285.6647 13.10370047307066
ONEWEB-0058             
1 45161U 20008AG  26158.36055841  .00000229  00000+0  61933-3 0  9998
2 45161  87.8841  38.2365 0001548  78.8723 281.2578 13.10370193307130
ONEWEB-0059             
1 45162U 20008AH  26158.43360233  .00000469  00000+0  13064-2 0  9998
2 45162  87.8837  38.2208 0001763  76.4570 283.6753 13.10370002307045
ONEWEB-0062             
1 45163U 20008AJ  26158.38018510 -.00000576  00000+0 -16854-2 0  9992
2 45163  87.8844  38.2177 0001378  85.4231 274.7054 13.10370841306905
ONEWEB-0065             
1 45164U 20008AK  26158.41340280  .00000255  00000+0  69325-3 0  9993
2 45164  87.8850  38.2195 0002222  83.5025 276.6355 13.10375206306604
ONEWEB-0066             
1 45424U 20020A   26158.38070911  .00000553  00000+0  15239-2 0  9998
2 45424  87.8899  23.0232 0001718  78.9844 281.1477 13.11418217301394
ONEWEB-0067             
1 45425U 20020B   26158.34233810 -.00000529  00000+0 -15289-2 0  9994
2 45425  87.8918  22.9513 0001996  83.6082 276.5273 13.11423243301445
ONEWEB-0080             
1 45426U 20020C   26158.18924939 -.00000495  00000+0 -14337-2 0  9991
2 45426  87.8910  23.0568 0001447  88.7614 271.3679 13.11417049301392
ONEWEB-0090             
1 45427U 20020D   26158.37067181  .00000299  00000+0  80791-3 0  9998
2 45427  87.8906  23.0254 0001766  85.2065 274.9265 13.11419120301387
ONEWEB-0061             
1 45428U 20020E   26158.32631087 -.00000132  00000+0 -40913-3 0  9996
2 45428  87.8903  23.0186 0001769  83.0290 277.1039 13.11415317301331
ONEWEB-0081             
1 45429U 20020F   26158.00262023  .00000433  00000+0  11849-2 0  9999
2 45429  87.8900  23.0939 0001871  79.0989 281.0349 13.11416463301408
ONEWEB-0069             
1 45430U 20020G   26158.38593162  .00000523  00000+0  14394-2 0  9991
2 45430  87.8903  23.0203 0001809  81.8309 278.3024 13.11418346301383
ONEWEB-0031             
1 45431U 20020H   26157.65842772 -.00000594  00000+0 -17128-2 0  9993
2 45431  87.8895  23.1707 0001579  87.8366 272.2943 13.11417432301273
ONEWEB-0027             
1 45432U 20020J   26158.07844966 -.00000095  00000+0 -28372-3 0  9998
2 45432  87.9149   7.8723 0001806  97.5803 262.5533 13.16053388305026
ONEWEB-0064             
1 45433U 20020K   26158.34339558 -.00000551  00000+0 -15908-2 0  9992
2 45433  87.8901  23.0265 0001672  90.1549 269.9770 13.11418434301392
ONEWEB-0018             
1 45434U 20020L   26158.37562339  .00000457  00000+0  12522-2 0  9993
2 45434  87.8899  23.0192 0001578  73.7726 286.3575 13.11418648301345
ONEWEB-0083             
1 45435U 20020M   26158.36559352  .00000127  00000+0  32341-3 0  9990
2 45435  87.8906  23.0145 0001722  83.7388 276.3937 13.11418509301380
ONEWEB-0095             
1 45436U 20020N   26158.35712313 -.00001595  00000+0 -45382-2 0  9998
2 45436  87.8916  23.0228 0002113 105.3178 254.8183 13.11404732301384
ONEWEB-0092             
1 45437U 20020P   26158.38937387  .00000417  00000+0  11312-2 0  9998
2 45437  87.8905  23.0105 0002116  86.7127 273.4244 13.11954604301503
ONEWEB-0085             
1 45438U 20020Q   26158.36531479  .00000165  00000+0  42988-3 0  9993
2 45438  87.8899  23.0219 0001785  84.3748 275.7584 13.11420196301388
ONEWEB-0096             
1 45439U 20020R   26158.36718373  .00000243  00000+0  64836-3 0  9997
2 45439  87.8907  23.0167 0001802  87.2528 272.8806 13.11424113301376
ONEWEB-0037             
1 45440U 20020S   26158.32786728 -.00000059  00000+0 -20164-3 0  9997
2 45440  87.8914  22.9983 0001858  85.7375 274.3966 13.11911075301400
ONEWEB-0042             
1 45441U 20020T   26158.35682606 -.00000125  00000+0 -38849-3 0  9994
2 45441  87.8908  23.0152 0001793  81.3589 278.7742 13.11420143301378
ONEWEB-0098             
1 45442U 20020U   26158.35272890 -.00000337  00000+0 -98764-3 0  9992
2 45442  87.8900  23.0252 0001685  86.1315 274.0005 13.11418464301354
ONEWEB-0055             
1 45443U 20020V   26158.33140800 -.00000269  00000+0 -79356-3 0  9996
2 45443  87.8903  23.0286 0001733  86.9431 273.1895 13.11413380301322
ONEWEB-0093             
1 45444U 20020W   26158.38763097  .00000549  00000+0  15131-2 0  9990
2 45444  87.8907  23.0098 0002037  74.7451 285.3902 13.11417508301390
ONEWEB-0029             
1 45445U 20020X   26158.33845985 -.00000482  00000+0 -13957-2 0  9995
2 45445  87.8894  23.0302 0001816  76.7557 283.3774 13.11418613301367
ONEWEB-0068             
1 45446U 20020Y   26158.38736240  .00000505  00000+0  13886-2 0  9999
2 45446  87.8907  23.0135 0001813  77.7166 282.4165 13.11416409301311
ONEWEB-0046             
1 45447U 20020Z   26158.37901331  .00000502  00000+0  13800-2 0  9997
2 45447  87.8900  23.0219 0002017  81.1490 278.9866 13.11418592301328
